{
  "type": "FeatureCollection",
  "features": [
    {
      "type": "Feature",
      "properties": {
        "name": "Västra Götaland"
      },
      "geometry": {
        "type": "MultiPolygon",
        "coordinates": [
          [
            [
              [11.15, 59.18],
              [11.42, 59.50],
              [12.15, 59.44],
              [12.82, 59.22],
              [13.52, 59.06],
              [14.45, 58.92],
              [14.18, 58.50],
              [13.78, 58.02],
              [13.48, 57.68],
              [12.98, 57.30],
              [12.18, 57.12],
              [11.68, 57.26],
              [11.28, 57.42],
              [11.14, 57.66],
              [10.96, 58.02],
              [11.08, 58.42],
              [10.98, 58.72],
              [11.15, 59.18]
            ]
          ]
        ]
      }
    }
  ]
}
